#dP2025  1 20  0  0  0.00000000      96 __u+U IGS20 FIT  IAC
## 2350  86400.00000000   900.00000000 60695 0.0000000000000
+  132   C01C02C03C04C05C06C07C08C09C10C11C12C13C14C16C19C20
+        C21C22C23C24C25C26C27C28C29C30C32C33C34C35C36C37C38
+        C39C40C41C42C43C44C45C59C60C62E02E03E04E05E06E07E08
+        E09E10E11E12E13E14E15E18E19E21E24E25E26E27E29E30E31
+        E33E34E36G01G02G03G04G05G06G07G08G09G10G11G12G13G14
+        G15G16G17G18G19G20G21G22G23G24G25G26G27G28G29G30G31
+        G32J02J03J04J07R01R02R03R04R05R06R07R08R09R10R11R12
+        R13R14R15R16R17R18R19R20R21R22R23R24R26  0  0  0  0
++        17 16 16 16 16  9  9  9  9  9  8  9  9  9  0  7  7
++         7  7  7  7  7  7  7  7  7  7  7  7  7  7  7  7  8
++         8  8  7  7  7  7  7 17 17 17  4  4  4  4  4  4  4
++         4  4  4  4  4  4  4  4  4  4  4  4  4  4  4  4  4
++         4  4  4  4  4  3  4  4  3  4  4  4  4  4  3  4  4
++         4  4  4  4  4  4  4  4  4  4  3  4  4  3  4  4  3
++         3  9  9 10  0  7  6  6  6  6 14  5  5  6 14  6  6
++        14  6  6  6  6  6  7  8  6  6 14  6  8  0  0  0  0
%c M  cc GPS ccc cccc cccc cccc cccc ccccc ccccc ccccc ccccc
%c cc cc ccc ccc cccc cccc cccc cccc ccccc ccccc ccccc ccccc
%f  0.0000000  0.000000000  0.00000000000  0.000000000000000
%f  0.0000000  0.000000000  0.00000000000  0.000000000000000
%i    0    0    0    0      0      0      0      0         0
%i    0    0    0    0      0      0      0      0         0
/* INFORMATION & ANALYSIS CENTER (IAC)            RAPID DATA
/* S/V CLOCKS ARE ALIGNED TO GNSS TIME                      
/* G:C1WC2W R:C1PC2P E:C1XC5X C:C2IC6I J:C1CC2S             
/* PCV:IGS20_2317 OL/AL:FES2004  NONE     YN ORB:CoN CLK:CoN
*  2025 01 20 11 15  0.00000000
PC01 -34366.415630  24458.109770    -39.261150   -352.940714
PC02   4369.617839  41845.760864  -2101.674072    657.744535
PC03 -14770.623245  39449.971555   -676.706357    769.504594
PC04 -39642.661329  14464.580407    554.839834   -343.420053
PC05  21743.264889  36035.223080  -1689.117957   -313.070985
PC06  -1450.907865  33234.150194 -25637.259528    688.647751
PC07 -14954.825673  27889.502576  27878.455889    191.146490
PC08 -14649.856792  38938.840934  -7586.467602    149.356537
PC09   4892.066730  36871.822484 -18701.967879   -894.491217
PC10  -6105.080454  28612.878109  30594.834233   -403.379937
PC11   9590.702652  19963.694493  17046.621883    345.819315
PC12  -9799.954894  12197.791438  23149.276960   -212.848477
PC13 -10982.360401  39395.653782 -10644.375833     63.925818
PC14   -401.572240  17111.054468 -22017.914439   -680.117210
PC16      0.000000      0.000000      0.000000 999999.999999
PC19  -9511.830916 -12415.439896  23134.181422   -962.927388
PC20   8765.017654 -18930.336989  18560.988897   -871.424132
PC21 -23711.138329  14537.262230  -2093.541474   -904.554104
PC22 -23623.529825   1656.275813  14740.676932    236.357627
PC23  15801.161540   6779.981992  21974.402524   -959.285077
PC24  -4504.262796  26986.355203  -5592.543625    686.192268
PC25   8651.067863  23781.090393  11770.824850    622.251098
PC26 -13804.600033  14809.383160 -19246.584027   -408.334255
PC27  18137.458045  -5816.470319 -20408.808604    426.032913
PC28  25145.174780   7418.582619  -9550.218066    333.584419
PC29 -17917.808285 -18571.345000 -10630.398897    391.542185
PC30   1200.527442 -17166.178316 -21981.126832     84.478967
PC32  23639.897544 -14709.613252   2020.875144   -887.942485
PC33   9550.410463  12396.352125 -23102.603236   -948.413917
PC34    610.258870  17819.640035  21449.659530    611.438497
PC35 -25546.174818  -7106.497427   8746.669115    148.500854
PC36  -8312.406979 -23747.840384 -12044.091451    254.521605
PC37  14278.778777 -13982.283705  19463.989814   -905.656701
PC38 -18875.561732  37675.877737   2828.767779    203.943865
PC39  -6912.937043  27521.635656 -31052.510025    -10.790704
PC40 -20653.878996  21236.743823  29878.381507   -115.820603
PC41  23203.628398   -990.066642 -15430.418439   -882.476374
PC42 -10622.708165  19116.958382 -17270.956976   -572.459836
PC43  17291.744606  18783.564030  11228.183202     98.926978
PC44 -18098.107518   6505.929914  20217.088819    716.497401
PC45 -15551.851115  -7482.231368 -21938.653511   -214.336871
PC59 -32326.669769  27048.145800  -1106.017268     -0.239186
PC60   7247.831817  41520.041430   -918.182081      0.681147
PC62 -39608.896913  14455.779115    421.727586      0.198143
PE02 -22302.810009  14283.271442 -13254.417048    191.427099
PE03 -27116.377969   4551.994625 -10954.155438   -167.763868
PE04  10548.381499 -15025.552048  23225.077003   -137.059317
PE05 -27381.589654  -8378.420651   7498.687075   4820.611103
PE06   -788.822147 -17175.302244  24081.934922    -72.634713
PE07  11344.720721  16524.895706 -21779.879965   -164.598899
PE08 -11290.323853  14652.159827 -23108.357696   -403.545098
PE09 -11260.972059 -16420.406840  21898.258264   -745.024442
PE10  -4133.518805 -27233.094792 -10834.971727   -684.461288
PE11 -11265.904886 -27376.272795   -604.762430   -440.254137
PE12   2764.845463 -23284.944031 -18074.172201  -1394.871982
PE13  10925.782860  27477.579407   1186.793524    -29.371663
PE14  23997.077844 -12582.796375 -16928.286716    613.087663
PE15  -3303.849924  22745.175332  18658.684174   -152.180668
PE18  -8048.652098  14900.036446  18239.715126   1019.317073
PE19  27842.185265  -3224.702132   9522.299080   1261.471416
PE21  17102.432734   4624.581396  23702.654260   -641.316126
PE24  -1724.125366 -21371.599118 -20419.787338  -1222.732374
PE25 -16846.693295  -5085.592875 -23806.611297     13.450620
PE26  18651.731938  15601.995766 -16861.281670   -148.694768
PE27   1682.305366  21374.467683  20406.535630   -561.125226
PE29  27503.290527   8277.028721  -7133.507071    -63.643422
PE30 -14475.447544  25286.595712   5252.813966  -1155.637224
PE31  14506.556862 -25282.153860  -5128.075440    -51.290717
PE33  15508.964491  -4295.553959 -24832.115998     16.445966
PE34 -15341.955800   4765.561764  24865.849210   -158.753869
PE36 -18489.642265 -16094.920754  16611.297435   -341.675302
PG01 -17457.372385  -6977.910714  18771.644180     63.090734
PG02 -19309.755240  -7829.399045  17160.855377   -263.352288
PG03 -17652.437081   4416.040909  19139.634618    649.543961
PG04 -26575.607008   -434.984089  -1847.544432    514.803522
PG05  11168.187979  10476.918035 -21869.363954   -199.566757
PG06   4081.210015  23758.312180  11079.521810   -131.457668
PG07 -12443.242145   8816.365758 -21185.098307    -13.396495
PG08 -24269.294788  -6500.494920  -9431.600114    464.620964
PG09 -23413.226774   7219.923341 -10433.119718    535.948742
PG10   9123.502296 -23740.636677   7259.286468   -284.615859
PG11  11942.623690  23749.272190   -640.167039   -751.125146
PG12  17408.252071   -597.834518  19748.881596   -565.532086
PG13  17553.647869  13481.193689 -15093.775943    694.054685
PG14 -12123.042724  23253.077014   3341.104144    583.466194
PG15  24801.579113   3739.533094  -9471.657266    253.824831
PG16  -6302.167116 -15778.101324 -20662.563901    -73.282366
PG17 -10806.677602  13408.185473  20681.509330    465.614215
PG18  10666.332673 -11212.296211 -21524.775620   -657.151040
PG19   1158.594029  15256.873680  21604.346880    588.403774
PG20   3810.604558  20972.784825 -15836.980315    366.929355
PG21 -19738.416506 -14473.071418  11967.009085    101.402419
PG22  -7411.130890  23197.241810  11349.217710    -93.234195
PG23  16683.936629 -19201.940517  -7165.190744    407.518524
PG24  19748.544610  10092.147669  14428.703537   -461.920515
PG25  18520.925487 -13841.637427  12469.088274    496.449326
PG26    274.073222 -22849.324252 -13394.015291    -55.867198
PG27 -15527.769858 -12816.096273 -17852.989444    -32.794549
PG28  -3319.748778 -23168.071723  12543.562039   -540.025069
PG29  23915.579454  -4887.757855 -10665.784957   -545.439391
PG30  -3777.776802  19615.905797 -17218.918573   -234.999577
PG31  -9390.289032 -24297.652702   3818.728828   -217.456589
PG32   4642.086383 -14950.659397  21666.642561   -538.106786
PJ02 -30010.450624  29652.168678   4071.525968     -0.678592
PJ03 -25196.993119  24241.251373  28733.298953     -0.258430
PJ04 -32525.849008  23629.705974  -7435.614890     21.180992
PJ07 -25370.196766  33680.738691    -46.116301 999999.999999
PR01 -22009.139252   1688.079340  12778.576776    111.888566
PR02 -23364.545169   9498.079859  -4008.658611    -38.282172
PR03 -11033.611761  13013.141122 -18938.174908    115.258089
PR04   6594.047889   8951.740472 -22923.314713    273.352716
PR05  20837.606041    428.190843 -14673.333791    144.047842
PR06  22232.962844 -11120.531006   5665.866083   -198.166509
PR07  10591.281590 -12994.797723  19247.977117     99.224390
PR08  -7061.863177  -8898.457062  22905.877830     -6.360151
PR09  11406.690566 -13985.104254  18079.834501    233.183010
PR10   7001.793013 -23916.776476   5224.283872   -273.840738
PR11  -1534.868609 -22438.860110 -12045.852185     -2.177542
PR12 -10035.734319  -5605.956015 -22753.577328     49.829708
PR13 -11712.922681  11306.056711 -19661.611863    -55.545046
PR14  -6242.056290  24492.366605  -3362.561587     27.617212
PR15   2440.126316  21456.097549  13583.689609     72.005025
PR16   9875.506932   5691.556702  22818.162672     32.602858
PR17   1536.316249  14348.368251  21056.205405    159.138981
PR18  14265.186440  18899.263505   9437.122711    182.855902
PR19  19416.015252  15677.973532  -5277.193691   -306.190567
PR20  13666.183066    -87.670784 -21514.161662   -124.806177
PR21   -268.600520 -13544.795612 -21603.048766   -169.749423
PR22 -14615.254271 -19282.038021  -8072.651290    -56.859118
PR23 -19979.208216 -13854.958674   7726.434449   -144.600685
PR24 -13651.242506   1504.005673  21513.360350    -88.955423
PR26  -4984.496295  -9664.522237  23095.921604   -131.613534
EOF
